NORAD_CAT_ID,OBJECT_NAME,OBJECT_TYPE,EPOCH,MEAN_MOTION,ECCENTRICITY,INCLINATION,RA_OF_ASC_NODE,ARG_OF_PERICENTER,MEAN_ANOMALY,BSTAR,MEAN_MOTION_DOT,MEAN_MOTION_DDOT,TLE_LINE0,TLE_LINE1,TLE_LINE2,SEMIMAJOR_AXIS,PERIOD,APOGEE,PERIGEE,DECAYED
50195.0,STARLINK-3266,PAYLOAD,2023-10-01 16:56:14,15.08836386,0.0001755,53.2172,274.4181,95.391,264.7282,-5.8035e-05,-1.212e-05,0.0,0 STARLINK-3266,1 50195U 21125AR  23274.70572858 -.00001212  00000-0 -58035-4 0  9994,2 50195  53.2172 274.4181 0001755  95.3910 264.7282 15.08836386102376,6917.891,95.438,540.971,538.542,0.0
50195.0,STARLINK-3266,PAYLOAD,2023-10-02 07:14:43,15.0883446,0.0001754,53.2173,271.7419,104.3513,255.7674,-8.1663e-05,-1.587e-05,0.0,0 STARLINK-3266,1 50195U 21125AR  23275.30189284 -.00001587  00000-0 -81663-4 0  9996,2 50195  53.2173 271.7419 0001754 104.3513 255.7674 15.08834460101982,6917.897,95.438,540.976,538.549,0.0
50195.0,STARLINK-3266,PAYLOAD,2023-10-02 16:47:01,15.08841757,0.0001726,53.2174,269.9563,97.0689,263.0499,-4.3504e-05,-9.8e-06,0.0,0 STARLINK-3266,1 50195U 21125AR  23275.69932787 -.00000980  00000-0 -43504-4 0  9990,2 50195  53.2174 269.9563 0001726  97.0689 263.0499 15.08841757102045,6917.875,95.437,540.934,538.546,0.0
50195.0,STARLINK-3266,PAYLOAD,2023-10-03 05:30:06,15.08841937,0.0001734,53.2174,267.5773,101.3267,258.792,0.00013636,1.883e-05,0.0,0 STARLINK-3266,1 50195U 21125AR  23276.22924508  .00001883  00000-0  13636-3 0  9995,2 50195  53.2174 267.5773 0001734 101.3267 258.7920 15.08841937102604,6917.874,95.437,540.939,538.54,0.0
50195.0,STARLINK-3266,PAYLOAD,2023-10-03 16:37:49,15.08839246,0.0001443,53.2154,265.4904,81.1439,278.9716,8.2407e-05,1.024e-05,0.0,0 STARLINK-3266,1 50195U 21125AR  23276.69292845  .00001024  00000-0  82407-4 0  9998,2 50195  53.2154 265.4904 0001443  81.1439 278.9716 15.08839246102672,6917.883,95.438,540.746,538.749,0.0
50195.0,STARLINK-3266,PAYLOAD,2023-10-04 00:34:45,15.08829601,0.0001623,53.2168,264.0034,86.5558,273.562,0.00012002,1.622e-05,0.0,0 STARLINK-3266,1 50195U 21125AR  23277.02413536  .00001622  00000-0  12002-3 0  9995,2 50195  53.2168 264.0034 0001623  86.5558 273.5620 15.08829601102249,6917.912,95.438,540.9,538.654,0.0
50195.0,STARLINK-3266,PAYLOAD,2023-10-04 16:28:36,15.08843002,0.0001969,53.2181,261.0343,87.1536,272.9681,4.9748e-05,5.04e-06,0.0,0 STARLINK-3266,1 50195U 21125AR  23277.68653160  .00000504  00000-0  49748-4 0  9992,2 50195  53.2181 261.0343 0001969  87.1536 272.9681 15.08843002102342,6917.871,95.437,541.098,538.374,0.0
50195.0,STARLINK-3266,PAYLOAD,2023-10-04 22:50:08,15.0884438,0.0001889,53.2186,259.8449,84.4242,275.6965,5.7872e-05,6.33e-06,0.0,0 STARLINK-3266,1 50195U 21125AR  23277.95149050  .00000633  00000-0  57872-4 0  9990,2 50195  53.2186 259.8449 0001889  84.4242 275.6965 15.08844380102866,6917.867,95.437,541.039,538.425,0.0
50195.0,STARLINK-3266,PAYLOAD,2023-10-05 05:11:40,15.08853252,0.0001588,53.2151,258.6523,98.6519,261.4653,6.9036e-05,8.11e-06,0.0,0 STARLINK-3266,1 50195U 21125AR  23278.21644222  .00000811  00000-0  69036-4 0  9994,2 50195  53.2151 258.6523 0001588  98.6519 261.4653 15.08853252102425,6917.84,95.437,540.803,538.606,0.0
50195.0,STARLINK-3266,PAYLOAD,2023-10-05 08:22:26,15.08854241,0.0001621,53.2154,258.0565,98.3438,261.7738,0.00010784,1.429e-05,0.0,0 STARLINK-3266,1 50195U 21125AR  23278.34891984  .00001429  00000-0  10784-3 0  9998,2 50195  53.2154 258.0565 0001621  98.3438 261.7738 15.08854241102924,6917.837,95.437,540.823,538.58,0.0
50195.0,STARLINK-3266,PAYLOAD,2023-10-05 16:19:23,15.08836933,0.0001612,53.2181,256.574,82.6653,277.4522,9.1134e-06,-1.43e-06,0.0,0 STARLINK-3266,1 50195U 21125AR  23278.68013340 -.00000143  00000-0  91134-5 0  9990,2 50195  53.2181 256.5740 0001612  82.6653 277.4522 15.08836933102492,6917.89,95.438,540.87,538.64,0.0
50195.0,STARLINK-3266,PAYLOAD,2023-10-06 08:13:14,15.08846257,0.000162,53.217,253.5957,103.4437,256.6736,9.9747e-05,1.3e-05,0.0,0 STARLINK-3266,1 50195U 21125AR  23279.34252497  .00001300  00000-0  99747-4 0  9994,2 50195  53.2170 253.5957 0001620 103.4437 256.6736 15.08846257102595,6917.861,95.437,540.847,538.606,0.0
50195.0,STARLINK-3266,PAYLOAD,2023-10-07 01:42:29,15.08836195,0.0001425,53.2163,250.3249,109.4403,250.6743,2.4839e-05,1.07e-06,0.0,0 STARLINK-3266,1 50195U 21125AR  23280.07117366  .00000107  00000-0  24839-4 0  9995,2 50195  53.2163 250.3249 0001425 109.4403 250.6743 15.08836195102703,6917.892,95.438,540.743,538.771,0.0
50195.0,STARLINK-3266,PAYLOAD,2023-10-07 08:04:01,15.08843874,0.0001486,53.2168,249.1362,96.5812,263.5349,4.8112e-06,-2.11e-06,0.0,0 STARLINK-3266,1 50195U 21125AR  23280.33612990 -.00000211  00000-0  48112-5 0  9995,2 50195  53.2168 249.1362 0001486  96.5812 263.5349 15.08843874103222,6917.869,95.437,540.762,538.706,0.0
50195.0,STARLINK-3266,PAYLOAD,2023-10-08 06:19:24,15.08854447,0.0001289,53.2165,244.9732,98.5907,261.5232,0.00013538,1.868e-05,0.0,0 STARLINK-3266,1 50195U 21125AR  23281.26348039  .00001868  00000-0  13538-3 0  9998,2 50195  53.2165 244.9732 0001289  98.5907 261.5232 15.08854447102889,6917.836,95.437,540.593,538.81,0.0
50195.0,STARLINK-3266,PAYLOAD,2023-10-08 14:16:20,15.0884726,0.0001314,53.2166,243.4877,103.8743,256.2396,8.5934e-05,1.08e-05,0.0,0 STARLINK-3266,1 50195U 21125AR  23281.59468530  .00001080  00000-0  85934-4 0  9999,2 50195  53.2166 243.4877 0001314 103.8743 256.2396 15.08847260102934,6917.858,95.437,540.632,538.814,0.0
50195.0,STARLINK-3266,PAYLOAD,2023-10-09 02:59:26,15.08839496,0.0001593,53.2165,241.1084,116.9948,243.1207,8.6441e-05,1.088e-05,0.0,0 STARLINK-3266,1 50195U 21125AR  23282.12461167  .00001088  00000-0  86441-4 0  9990,2 50195  53.2165 241.1084 0001593 116.9948 243.1207 15.08839496103017,6917.882,95.438,540.849,538.645,0.0
50195.0,STARLINK-3266,PAYLOAD,2023-10-09 06:10:12,15.08850511,0.0001382,53.216,240.5152,88.3512,271.7639,0.00015155,2.125e-05,0.0,0 STARLINK-3266,1 50195U 21125AR  23282.25708477  .00002125  00000-0  15155-3 0  9998,2 50195  53.2160 240.5152 0001382  88.3512 271.7639 15.08850511103035,6917.848,95.437,540.669,538.757,0.0
50195.0,STARLINK-3266,PAYLOAD,2023-10-09 14:07:08,15.08839148,0.0001922,53.2163,239.0265,78.589,281.5318,3.605e-05,2.86e-06,0.0,0 STARLINK-3266,1 50195U 21125AR  23282.58829618  .00000286  00000-0  36050-4 0  9999,2 50195  53.2163 239.0265 0001922  78.5890 281.5318 15.08839148103087,6917.883,95.438,541.078,538.418,0.0
50195.0,STARLINK-3266,PAYLOAD,2023-10-10 06:00:59,15.08851859,0.0001346,53.2164,236.0526,88.2439,271.8708,3.6943e-05,3e-06,0.0,0 STARLINK-3266,1 50195U 21125AR  23283.25068868  .00000300  00000-0  36943-4 0  9994,2 50195  53.2164 236.0526 0001346  88.2439 271.8708 15.08851859103181,6917.844,95.437,540.64,538.778,0.0
50195.0,STARLINK-3266,PAYLOAD,2023-10-10 13:57:55,15.088402,0.0001221,53.2165,234.5663,96.9709,263.1422,-7.5667e-05,-1.492e-05,0.0,0 STARLINK-3266,1 50195U 21125AR  23283.58189783 -.00001492  00000-0 -75667-4 0  9991,2 50195  53.2165 234.5663 0001221  96.9709 263.1422 15.08840200103719,6917.88,95.438,540.589,538.9,0.0
50195.0,STARLINK-3266,PAYLOAD,2023-10-11 05:51:46,15.08846081,0.0001412,53.2167,231.5928,83.1981,276.9172,0.00013591,1.876e-05,0.0,0 STARLINK-3266,1 50195U 21125AR  23284.24429356  .00001876  00000-0  13591-3 0  9999,2 50195  53.2167 231.5928 0001412  83.1981 276.9172 15.08846081103339,6917.862,95.437,540.704,538.75,0.0
50195.0,STARLINK-3266,PAYLOAD,2023-10-11 13:48:43,15.08847205,0.0001695,53.2168,230.1058,80.066,280.0524,-0.00016459,-2.907e-05,0.0,0 STARLINK-3266,1 50195U 21125AR  23284.57549996 -.00002907  00000-0 -16459-3 0  9992,2 50195  53.2168 230.1058 0001695  80.0660 280.0524 15.08847205103866,6917.858,95.437,540.896,538.551,0.0
50195.0,STARLINK-3266,PAYLOAD,2023-10-12 13:39:30,15.08843142,0.0001404,53.2169,225.6445,88.2496,271.8657,1.9066e-05,1.6e-07,0.0,0 STARLINK-3266,1 50195U 21125AR  23285.56910166  .00000016  00000-0  19066-4 0  9998,2 50195  53.2169 225.6445 0001404  88.2496 271.8657 15.08843142104010,6917.871,95.437,540.707,538.765,0.0
50195.0,STARLINK-3266,PAYLOAD,2023-10-13 02:22:35,15.08838038,0.0001384,53.2179,223.2665,86.5703,273.5447,0.000106,1.399e-05,0.0,0 STARLINK-3266,1 50195U 21125AR  23286.09902525  .00001399  00000-0  10600-3 0  9996,2 50195  53.2179 223.2665 0001384  86.5703 273.5447 15.08838038103617,6917.886,95.438,540.709,538.794,0.0
50195.0,STARLINK-3266,PAYLOAD,2023-10-13 05:33:20,15.08856806,0.0001421,53.2168,222.6704,95.3043,264.8112,0.00014354,1.998e-05,0.0,0 STARLINK-3266,1 50195U 21125AR  23286.23149125  .00001998  00000-0  14354-3 0  9996,2 50195  53.2168 222.6704 0001421  95.3043 264.8112 15.08856806103636,6917.829,95.436,540.677,538.711,0.0
50195.0,STARLINK-3266,PAYLOAD,2023-10-13 13:30:17,15.08846581,0.0001475,53.2172,221.1852,95.606,264.51,5.2566e-05,5.49e-06,0.0,0 STARLINK-3266,1 50195U 21125AR  23286.56269898  .00000549  00000-0  52566-4 0  9991,2 50195  53.2172 221.1852 0001475  95.6060 264.5100 15.08846581104162,6917.86,95.437,540.746,538.705,0.0
50195.0,STARLINK-3266,PAYLOAD,2023-10-13 19:51:49,15.08840112,0.0001187,53.2158,219.9964,92.9718,267.141,0.00015147,2.124e-05,0.0,0 STARLINK-3266,1 50195U 21125AR  23286.82766075  .00002124  00000-0  15147-3 0  9993,2 50195  53.2158 219.9964 0001187  92.9718 267.1410 15.08840112103723,6917.88,95.438,540.566,538.924,0.0
50195.0,STARLINK-3266,PAYLOAD,2023-10-14 02:13:20,15.08867336,0.0001353,53.2163,218.8056,99.9236,260.1908,0.00018702,2.692e-05,0.0,0 STARLINK-3266,1 50195U 21125AR  23287.09260153  .00002692  00000-0  18702-3 0  9999,2 50195  53.2163 218.8056 0001353  99.9236 260.1908 15.08867336103762,6917.797,95.436,540.598,538.726,0.0
50195.0,STARLINK-3266,PAYLOAD,2023-10-14 19:42:37,15.08833436,0.0001425,53.2174,215.5349,86.4578,273.6577,2.2368e-05,6.8e-07,0.0,0 STARLINK-3266,1 50195U 21125AR  23287.82126759  .00000068  00000-0  22368-4 0  9992,2 50195  53.2174 215.5349 0001425  86.4578 273.6577 15.08833436103870,6917.9,95.438,540.751,538.78,0.0
